OBJECT_NAME,OBJECT_ID,EPOCH,MEAN_MOTION,ECCENTRICITY,INCLINATION,RA_OF_ASC_NODE,ARG_OF_PERICENTER,MEAN_ANOMALY,EPHEMERIS_TYPE,CLASSIFICATION_TYPE,NORAD_CAT_ID,ELEMENT_SET_NO,REV_AT_EPOCH,BSTAR,MEAN_MOTION_DOT,MEAN_MOTION_DDOT
STARLINK-37769,2026-154R,2026-07-20T14:53:32.821728,15.80922924,.00015576,53.1577,265.6291,121.4157,238.7018,0,U,69834,999,367,.883555E-3,.177731E-2,0
STARLINK-37247,2026-154S,2026-07-20T14:52:27.984576,15.80918327,.0001369,53.1575,265.6244,124.5328,235.5824,0,U,69835,999,367,.86841E-3,.174569E-2,0
STARLINK-37569,2026-154T,2026-07-20T10:18:16.731648,15.80936433,.00009771,53.1581,266.5700,75.4821,284.6310,0,U,69836,999,364,.78079383E-3,.156689E-2,0
STARLINK-37587,2026-154U,2026-07-20T14:50:19.245120,15.80916545,.00037977,53.1581,265.6137,13.3153,346.7970,0,U,69837,999,367,.81995266E-3,.164631E-2,0
STARLINK-37590,2026-154V,2026-07-20T16:20:15.285408,15.80930141,.0002854,53.1579,265.2916,154.7653,205.3510,0,U,69838,999,368,.73204246E-3,.146667E-2,0
STARLINK-37589,2026-154W,2026-07-20T14:48:09.200160,15.80919727,.00018802,53.1572,265.6038,56.8016,303.3187,0,U,69839,999,367,.83883263E-3,.168495E-2,0
STARLINK-37487,2026-154X,2026-07-20T22:00:01.999584,15.80896139,.00009919,53.1586,263.6191,88.5822,51.0832,0,U,69840,999,356,-.42204619E-3,-.83286E-3,0
STARLINK-37433,2026-154Y,2026-07-20T22:00:01.999584,15.80894666,.00010118,53.1590,263.6201,89.4816,49.5447,0,U,69841,999,369,-.39511287E-3,-.78057E-3,0
STARLINK-37588,2026-154Z,2026-07-20T22:00:01.999584,15.80888324,.00011386,53.1586,263.5846,85.8801,70.3320,0,U,69842,999,359,-.32540914E-3,-.64492E-3,0
STARLINK-37579,2026-154AA,2026-07-20T22:00:01.999584,15.80896646,.00009024,53.1589,263.5875,93.2260,61.3963,0,U,69843,999,359,-.32068411E-3,-.63595E-3,0
STARLINK-37584,2026-154AB,2026-07-20T22:00:01.999584,15.80887261,.00011998,53.1590,263.5801,71.5623,86.8892,0,U,69844,999,359,-.33899462E-3,-.67133E-3,0
STARLINK-37606,2026-154AC,2026-07-20T22:00:01.999584,15.80886685,.00008627,53.1588,263.5681,93.5132,70.1020,0,U,69845,999,359,-.34947926E-3,-.69166E-3,0
STARLINK-37603,2026-154AD,2026-07-20T22:00:01.999584,15.80885741,.00009569,53.1590,263.5611,91.1116,75.8452,0,U,69846,999,359,-.36374964E-3,-.71937E-3,0
STARLINK-37595,2026-154AE,2026-07-20T22:00:01.999584,15.80908009,.00009888,53.1591,263.5499,85.9227,86.2250,0,U,69847,999,359,-.45183349E-3,-.89104E-3,0
STARLINK-37886,2026-157A,2026-07-20T22:00:01.999584,15.80884289,.00011368,53.1593,267.1571,81.0382,197.8359,0,U,69943,999,307,-.29154533E-3,-.57886E-3,0
STARLINK-37937,2026-157B,2026-07-20T22:00:01.999584,15.80914151,.00011521,53.1594,267.1386,89.9768,197.9728,0,U,69944,999,307,-.52469735E-3,-.103225E-2,0
STARLINK-37903,2026-157C,2026-07-20T22:00:01.999584,15.80887291,.00013725,53.1595,267.1288,81.9725,210.5099,0,U,69945,999,307,-.38436296E-3,-.75949E-3,0
STARLINK-37905,2026-157D,2026-07-20T22:00:01.999584,15.80885823,.00011243,53.1596,267.0888,89.2031,222.5617,0,U,69946,999,307,-.36977498E-3,-.73109E-3,0
STARLINK-37904,2026-157E,2026-07-20T22:00:01.999584,15.80893857,.00011702,53.1595,267.0807,88.8457,226.8213,0,U,69947,999,307,-.38413892E-3,-.75926E-3,0
STARLINK-37891,2026-157F,2026-07-20T22:00:01.999584,15.80891167,.0001132,53.1595,267.0717,94.1370,225.8213,0,U,69948,999,307,-.35952817E-3,-.71136E-3,0
STARLINK-37923,2026-157G,2026-07-20T22:00:01.999584,15.80860409,.00011653,53.1643,267.0359,91.7286,245.3417,0,U,69949,999,307,-.11744736E-3,-.23802E-3,0
STARLINK-37895,2026-157H,2026-07-20T22:00:01.999584,15.80859638,.00010945,53.1596,267.0206,88.3078,256.2495,0,U,69950,999,307,-.23289308E-3,-.4639E-3,0
STARLINK-37841,2026-157J,2026-07-20T22:00:01.999584,15.80897953,.00012036,53.1596,266.9967,85.0137,270.9256,0,U,69951,999,307,-.43083509E-3,-.84999E-3,0
STARLINK-37899,2026-157K,2026-07-20T22:00:01.999584,15.80899889,.00012487,53.1594,266.9739,85.3470,281.7440,0,U,69952,999,307,-.37220989E-3,-.7363E-3,0
STARLINK-37900,2026-157L,2026-07-20T22:00:01.999584,15.80898084,.00011857,53.1595,266.9659,94.4255,276.4993,0,U,69953,999,307,-.38337138E-3,-.75792E-3,0
STARLINK-37882,2026-157M,2026-07-20T22:00:01.999584,15.80910439,.00011943,53.1595,266.9434,88.1334,293.5978,0,U,69954,999,307,-.47266417E-3,-.9315E-3,0
STARLINK-37928,2026-157N,2026-07-20T22:00:01.999584,15.80910708,.00010434,53.1594,266.9421,96.7573,285.6593,0,U,69955,999,307,-.50933662E-3,-.100241E-2,0
STARLINK-37824,2026-157P,2026-07-20T22:00:01.999584,15.80908926,.00008863,53.1594,266.9393,96.6079,287.2405,0,U,69956,999,307,-.43707213E-3,-.86247E-3,0
STARLINK-37919,2026-157Q,2026-07-20T22:00:01.999584,15.80883820,.0001012,53.1594,266.9371,93.3448,291.4802,0,U,69957,999,307,-.30973623E-3,-.61427E-3,0
STARLINK-37964,2026-157R,2026-07-20T22:00:01.999584,15.80898698,.00006832,53.1593,266.9238,89.1013,302.2005,0,U,69958,999,307,-.3762944E-3,-.74414E-3,0
STARLINK-37907,2026-157S,2026-07-20T22:00:01.999584,15.80896253,.00010457,53.1593,266.9029,88.7908,312.6244,0,U,69959,999,307,-.57012694E-3,-.111897E-2,0
STARLINK-37901,2026-157T,2026-07-20T22:00:01.999584,15.80890361,.00010113,53.1592,266.8895,95.1730,312.8271,0,U,69960,999,307,-.30621255E-3,-.60759E-3,0
STARLINK-37910,2026-157U,2026-07-20T22:00:01.999584,15.80902231,.00009983,53.1592,266.8703,88.7396,328.3191,0,U,69961,999,307,-.37450863E-3,-.74082E-3,0
STARLINK-37925,2026-157V,2026-07-20T22:00:01.999584,15.80881852,.00010201,53.1590,266.8663,87.3405,331.7449,0,U,69962,999,307,-.47342435E-3,-.93174E-3,0
STARLINK-37931,2026-157W,2026-07-20T22:00:01.999584,15.80898757,.00007875,53.1591,266.8595,95.5838,326.7190,0,U,69963,999,307,-.34828238E-3,-.68971E-3,0
STARLINK-37914,2026-157X,2026-07-20T22:00:01.999584,15.80862386,.00011733,53.1634,266.8245,94.0841,344.7856,0,U,69964,999,307,-.73178219E-4,-.15109E-3,0
STARLINK-37840,2026-157Y,2026-07-20T22:00:01.999584,15.80885419,.00008791,53.1589,266.7894,91.2356,4.4852,0,U,69965,999,307,-.25661531E-3,-.51075E-3,0
STARLINK-37894,2026-157Z,2026-07-20T22:00:01.999584,15.80880491,.00011754,53.1632,266.8039,72.6230,16.2977,0,U,69966,999,307,-.18155543E-3,-.36394E-3,0
STARLINK-37875,2026-157AA,2026-07-20T22:00:01.999584,15.80901618,.00010831,53.1588,266.7823,84.1022,14.9609,0,U,69967,999,307,-.38928636E-3,-.76951E-3,0
STARLINK-36218,2026-157AB,2026-07-20T22:00:01.999584,15.80877745,.00008759,53.1590,266.7549,93.2476,18.8826,0,U,69968,999,272,-.30352206E-3,-.602E-3,0
STARLINK-37921,2026-157AC,2026-07-20T22:00:01.999584,15.80902151,.00010564,53.1593,266.7176,79.1025,50.9761,0,U,69969,999,307,-.44252925E-3,-.87279E-3,0
STARLINK-37896,2026-157AD,2026-07-20T22:00:01.999584,15.80905826,.00010139,53.1591,266.7154,92.1661,39.0054,0,U,69970,999,307,-.46940947E-3,-.92498E-3,0
STARLINK-37922,2026-157AE,2026-07-20T22:00:01.999584,15.80908252,.00010214,53.1593,266.7125,91.1162,41.3798,0,U,69971,999,307,-.45727819E-3,-.9016E-3,0
STARLINK-38024,2026-159A,2026-07-20T22:00:01.999584,15.80814499,.00015312,97.2851,40.9159,97.6887,18.8614,0,U,69975,999,277,-.53086315E-4,-.10298E-3,0
STARLINK-37993,2026-159B,2026-07-20T22:00:01.999584,15.80808923,.00012157,97.2851,40.9176,89.8015,31.0246,0,U,69976,999,277,-.1777302E-4,-.3544E-4,0
STARLINK-37995,2026-159C,2026-07-20T22:00:01.999584,15.80814311,.00012226,97.2851,40.9197,97.3563,27.7390,0,U,69977,999,277,-.1862791E-5,-.499E-5,0
STARLINK-38057,2026-159D,2026-07-20T22:00:01.999584,15.80737160,.00013999,97.2851,40.9210,91.2314,38.1115,0,U,69978,999,277,.6473192E-3,.125193E-2,0
STARLINK-38063,2026-159E,2026-07-20T22:00:01.999584,15.80809665,.0001618,97.2851,40.9230,102.3556,31.2844,0,U,69979,999,277,.81183331E-4,.15432E-3,0
STARLINK-38093,2026-159F,2026-07-20T22:00:01.999584,15.80801624,.00014812,97.2848,40.9241,94.3215,43.5956,0,U,69980,999,277,.54498608E-4,.10303E-3,0
STARLINK-38050,2026-159G,2026-07-20T22:00:01.999584,15.80766862,.00011177,97.2850,40.9256,109.8215,32.3729,0,U,69981,999,277,.26791509E-3,.51363E-3,0
STARLINK-38065,2026-159H,2026-07-20T22:00:01.999584,15.80791105,.00011393,97.2850,40.9281,98.3439,48.1232,0,U,69982,999,277,.92486077E-4,.17589E-3,0
STARLINK-38077,2026-159J,2026-07-20T22:00:01.999584,15.80793043,.00011033,97.2850,40.9299,97.2723,53.4673,0,U,69983,999,277,.10981257E-3,.2092E-3,0
STARLINK-38068,2026-159K,2026-07-20T22:00:01.999584,15.80794769,.00009778,97.2849,40.9312,114.7592,40.2508,0,U,69984,999,277,.57243927E-4,.10826E-3,0
STARLINK-38089,2026-159L,2026-07-20T22:00:01.999584,15.80782624,.00015283,97.2850,40.9337,98.4238,60.8736,0,U,69985,999,277,.16731232E-3,.31975E-3,0
STARLINK-38073,2026-159M,2026-07-20T22:00:01.999584,15.80827060,.00013078,97.2849,40.9348,71.1651,92.3645,0,U,69986,999,277,-.11807273E-3,-.22711E-3,0
STARLINK-38099,2026-159N,2026-07-20T22:00:01.999584,15.80801184,.000159,97.2848,40.9366,91.7324,76.0938,0,U,69987,999,277,.6021712E-4,.114E-3,0
STARLINK-38064,2026-159P,2026-07-20T22:00:01.999584,15.80752972,.00014603,97.2850,40.9401,100.6164,75.7702,0,U,69988,999,277,.40286276E-3,.77491E-3,0
STARLINK-38080,2026-159Q,2026-07-20T22:00:01.999584,15.80787465,.00014032,97.2849,40.9384,106.5958,65.5138,0,U,69989,999,277,.9771436E-4,.18591E-3,0
STARLINK-38070,2026-159R,2026-07-20T22:00:01.999584,15.80792495,.00008327,97.2850,40.9431,97.9436,82.7162,0,U,69990,999,277,.10781474E-3,.20536E-3,0
STARLINK-38042,2026-159S,2026-07-20T22:00:01.999584,15.80934885,.00013296,97.2848,40.9438,83.4394,101.4259,0,U,69991,999,277,-.11619075E-2,-.218418E-2,0
STARLINK-38071,2026-159T,2026-07-20T22:00:01.999584,15.81180467,.0001548,97.2851,40.9462,74.2483,114.7523,0,U,69992,999,277,-.29576537E-2,-.541953E-2,0
STARLINK-38082,2026-159U,2026-07-20T22:00:01.999584,15.81549459,.0001311,97.2851,40.9486,69.0488,124.0046,0,U,69993,999,277,-.58175248E-2,-.1025371E-1,0
STARLINK-38090,2026-159V,2026-07-20T22:00:01.999584,15.81845754,.00016308,97.2850,40.9499,89.8532,107.2062,0,U,69994,999,277,-.68664463E-2,-.1224945E-1,0
STARLINK-38084,2026-159W,2026-07-20T22:00:01.999584,15.82161425,.00017747,97.2855,40.9528,85.6601,115.3719,0,U,69995,999,277,-.81027783E-2,-.1464169E-1,0
